[{"OBJECT_NAME":"LEMUR-2-TARTIFLETTE","OBJECT_ID":"2025-276DZ","EPOCH":"2026-03-28T16:57:44.826048","MEAN_MOTION":14.9803116,"ECCENTRICITY":0.0014694,"INCLINATION":97.5317,"RA_OF_ASC_NODE":161.1405,"ARG_OF_PERICENTER":54.0061,"MEAN_ANOMALY":306.2521,"EPHEMERIS_TYPE":0,"CLASSIFICATION_TYPE":"U","NORAD_CAT_ID":66784,"ELEMENT_SET_NO":999,"REV_AT_EPOCH":1814,"BSTAR":0.00053139,"MEAN_MOTION_DOT":6.238e-5,"MEAN_MOTION_DDOT":0},{"OBJECT_NAME":"LEMUR-2-VUKASIN","OBJECT_ID":"2025-276EA","EPOCH":"2026-03-28T15:17:45.913344","MEAN_MOTION":14.99318383,"ECCENTRICITY":0.000995,"INCLINATION":97.5318,"RA_OF_ASC_NODE":161.2139,"ARG_OF_PERICENTER":53.4613,"MEAN_ANOMALY":306.7525,"EPHEMERIS_TYPE":0,"CLASSIFICATION_TYPE":"U","NORAD_CAT_ID":66785,"ELEMENT_SET_NO":999,"REV_AT_EPOCH":1807,"BSTAR":0.00060847,"MEAN_MOTION_DOT":7.388e-5,"MEAN_MOTION_DDOT":0},{"OBJECT_NAME":"LEMUR-2-HOTSPUR-TOM","OBJECT_ID":"2025-276EB","EPOCH":"2026-03-28T18:19:04.047456","MEAN_MOTION":14.98028652,"ECCENTRICITY":0.0015575,"INCLINATION":97.5312,"RA_OF_ASC_NODE":161.1971,"ARG_OF_PERICENTER":50.649,"MEAN_ANOMALY":309.611,"EPHEMERIS_TYPE":0,"CLASSIFICATION_TYPE":"U","NORAD_CAT_ID":66786,"ELEMENT_SET_NO":999,"REV_AT_EPOCH":1808,"BSTAR":0.00062851,"MEAN_MOTION_DOT":7.392e-5,"MEAN_MOTION_DDOT":0},{"OBJECT_NAME":"LEMUR-2 FIKRETDENGIZ","OBJECT_ID":"2026-004A","EPOCH":"2026-03-28T17:01:05.697408","MEAN_MOTION":14.87636322,"ECCENTRICITY":0.0010264,"INCLINATION":97.8023,"RA_OF_ASC_NODE":87.5454,"ARG_OF_PERICENTER":52.516,"MEAN_ANOMALY":307.6988,"EPHEMERIS_TYPE":0,"CLASSIFICATION_TYPE":"U","NORAD_CAT_ID":67363,"ELEMENT_SET_NO":999,"REV_AT_EPOCH":1131,"BSTAR":0.00067645,"MEAN_MOTION_DOT":6.107e-5,"MEAN_MOTION_DDOT":0},{"OBJECT_NAME":"LEMUR-2-CALLUM-K-J","OBJECT_ID":"2026-004B","EPOCH":"2026-03-28T17:01:12.263808","MEAN_MOTION":14.87403,"ECCENTRICITY":0.0009719,"INCLINATION":97.8065,"RA_OF_ASC_NODE":87.5746,"ARG_OF_PERICENTER":42.3026,"MEAN_ANOMALY":317.8938,"EPHEMERIS_TYPE":0,"CLASSIFICATION_TYPE":"U","NORAD_CAT_ID":67364,"ELEMENT_SET_NO":999,"REV_AT_EPOCH":1132,"BSTAR":0.00046781,"MEAN_MOTION_DOT":4.181e-5,"MEAN_MOTION_DDOT":0},{"OBJECT_NAME":"LEMUR-2-MARIO-SOUSA","OBJECT_ID":"2026-004C","EPOCH":"2026-03-28T13:36:43.459488","MEAN_MOTION":14.87794386,"ECCENTRICITY":0.0009865,"INCLINATION":97.8001,"RA_OF_ASC_NODE":87.4051,"ARG_OF_PERICENTER":54.1543,"MEAN_ANOMALY":306.0588,"EPHEMERIS_TYPE":0,"CLASSIFICATION_TYPE":"U","NORAD_CAT_ID":67365,"ELEMENT_SET_NO":999,"REV_AT_EPOCH":1130,"BSTAR":0.00066793,"MEAN_MOTION_DOT":6.053e-5,"MEAN_MOTION_DDOT":0},{"OBJECT_NAME":"LEMUR-2-SONNENBLUME","OBJECT_ID":"2026-004E","EPOCH":"2026-03-28T13:28:37.911360","MEAN_MOTION":14.87871133,"ECCENTRICITY":0.0009614,"INCLINATION":97.7989,"RA_OF_ASC_NODE":87.4017,"ARG_OF_PERICENTER":55.854,"MEAN_ANOMALY":304.3586,"EPHEMERIS_TYPE":0,"CLASSIFICATION_TYPE":"U","NORAD_CAT_ID":67367,"ELEMENT_SET_NO":999,"REV_AT_EPOCH":1130,"BSTAR":-0.00012156,"MEAN_MOTION_DOT":-1.167e-5,"MEAN_MOTION_DDOT":0},{"OBJECT_NAME":"LEMUR-2-WOBLER","OBJECT_ID":"2026-004F","EPOCH":"2026-03-28T13:27:51.401376","MEAN_MOTION":14.87868767,"ECCENTRICITY":0.0009474,"INCLINATION":97.8051,"RA_OF_ASC_NODE":87.4521,"ARG_OF_PERICENTER":46.4989,"MEAN_ANOMALY":313.7013,"EPHEMERIS_TYPE":0,"CLASSIFICATION_TYPE":"U","NORAD_CAT_ID":67368,"ELEMENT_SET_NO":999,"REV_AT_EPOCH":1130,"BSTAR":0.00065714,"MEAN_MOTION_DOT":5.964e-5,"MEAN_MOTION_DDOT":0},{"OBJECT_NAME":"LEMUR-2-GRAM-E-SUE","OBJECT_ID":"2026-004H","EPOCH":"2026-03-28T18:09:08.701344","MEAN_MOTION":14.88018978,"ECCENTRICITY":0.0008671,"INCLINATION":97.7981,"RA_OF_ASC_NODE":87.6011,"ARG_OF_PERICENTER":58.2482,"MEAN_ANOMALY":301.9578,"EPHEMERIS_TYPE":0,"CLASSIFICATION_TYPE":"U","NORAD_CAT_ID":67370,"ELEMENT_SET_NO":999,"REV_AT_EPOCH":1133,"BSTAR":0.00071997,"MEAN_MOTION_DOT":6.564e-5,"MEAN_MOTION_DDOT":0},{"OBJECT_NAME":"LEMUR-2-KATIE","OBJECT_ID":"2026-004AA","EPOCH":"2026-03-28T18:10:14.288448","MEAN_MOTION":14.89392089,"ECCENTRICITY":0.0003641,"INCLINATION":97.8046,"RA_OF_ASC_NODE":87.8093,"ARG_OF_PERICENTER":30.9512,"MEAN_ANOMALY":329.1919,"EPHEMERIS_TYPE":0,"CLASSIFICATION_TYPE":"U","NORAD_CAT_ID":67387,"ELEMENT_SET_NO":999,"REV_AT_EPOCH":1133,"BSTAR":0.00074508,"MEAN_MOTION_DOT":7.027e-5,"MEAN_MOTION_DDOT":0},{"OBJECT_NAME":"LEMUR-2-HCS-BAZUS","OBJECT_ID":"2026-004AB","EPOCH":"2026-03-28T18:04:30.827712","MEAN_MOTION":14.8940851,"ECCENTRICITY":0.0002908,"INCLINATION":97.8035,"RA_OF_ASC_NODE":87.8051,"ARG_OF_PERICENTER":31.1883,"MEAN_ANOMALY":328.9507,"EPHEMERIS_TYPE":0,"CLASSIFICATION_TYPE":"U","NORAD_CAT_ID":67388,"ELEMENT_SET_NO":999,"REV_AT_EPOCH":1133,"BSTAR":0.00062797,"MEAN_MOTION_DOT":5.915e-5,"MEAN_MOTION_DDOT":0}]
